KUIPER-00095            
1 65134U 25171C   25273.95769777  .00041000  00000+0  11360-2 0  9998
2 65134  51.8755 161.4704 0004003 338.0868  21.9947 15.36550581  9008
KUIPER-00096            
1 65135U 25171D   25274.07839267  .00058520  00000+0  15903-2 0  9997
2 65135  51.8758 160.7812 0004026 317.1336  42.9337 15.36993651  9024
KUIPER-00097            
1 65136U 25171E   25273.95885883  .00061780  00000+0  16949-2 0  9992
2 65136  51.8758 161.4784 0003583 332.8651  27.2148 15.36675196  8994
KUIPER-00098            
1 65137U 25171F   25274.06845540  .00059954  00000+0  16207-2 0  9999
2 65137  51.8749 160.7243 0005823 306.5757  53.4694 15.37139376  8365
KUIPER-00099            
1 65138U 25171G   25274.13603838  .00062431  00000+0  16845-2 0  9992
2 65138  51.8756 160.4286 0004248 295.7669  64.2879 15.37185393  9028
KUIPER-00100            
1 65139U 25171H   25274.07802845  .00057974  00000+0  15776-2 0  9993
2 65139  51.8754 160.7766 0004425 316.6362  43.4276 15.36953069  9014
KUIPER-00102            
1 65140U 25171J   25273.95869548  .00058421  00000+0  16090-2 0  9992
2 65140  51.8751 161.4755 0003716 333.8730  26.2068 15.36579095  8998
KUIPER-00103            
1 65141U 25171K   25274.33336806 -.00587615  00000+0 -27565-1 0  9994
2 65141  51.8837 160.3660 0004951 309.3167 349.3265 15.21461541  4287
